[{"OBJECT_NAME":"STARLINK-3913","OBJECT_ID":"2022-049AL","EPOCH":"2026-03-09T09:05:36.400128","MEAN_MOTION":15.08829936,"ECCENTRICITY":0.00014775,"INCLINATION":53.2185,"RA_OF_ASC_NODE":50.5147,"ARG_OF_PERICENTER":90.2684,"MEAN_ANOMALY":269.8478,"EPHEMERIS_TYPE":0,"CLASSIFICATION_TYPE":"U","NORAD_CAT_ID":52485,"ELEMENT_SET_NO":999,"REV_AT_EPOCH":21234,"BSTAR":-5.2300849e-5,"MEAN_MOTION_DOT":-1.12e-5,"MEAN_MOTION_DDOT":0},{"OBJECT_NAME":"BREEZE-KM R\/B","OBJECT_ID":"2018-039B","EPOCH":"2026-03-09T22:26:32.085312","MEAN_MOTION":15.28213901,"ECCENTRICITY":0.01527689,"INCLINATION":98.674,"RA_OF_ASC_NODE":182.4943,"ARG_OF_PERICENTER":174.8677,"MEAN_ANOMALY":185.417,"EPHEMERIS_TYPE":0,"CLASSIFICATION_TYPE":"U","NORAD_CAT_ID":43438,"ELEMENT_SET_NO":999,"REV_AT_EPOCH":43229,"BSTAR":0.00046949249,"MEAN_MOTION_DOT":0.00018266,"MEAN_MOTION_DDOT":0}]
